$$SOE
2461295.500000000, A.D. 2026-Sep-12 00:00:00.0000, -4.611354245389796E+08, -3.387283339194813E+08, 1.476845137119919E+06,
2461302.500000000, A.D. 2026-Sep-19 00:00:00.0000, -4.556577530187711E+08, -3.447597312130910E+08, 1.253097222603291E+06,
2461309.500000000, A.D. 2026-Sep-26 00:00:00.0000, -4.500614847028373E+08, -3.507014137367055E+08, 1.029023620898992E+06,
2461316.500000000, A.D. 2026-Oct-03 00:00:00.0000, -4.443475713093734E+08, -3.565514431768932E+08, 8.046815697779655E+05,
2461323.500000000, A.D. 2026-Oct-10 00:00:00.0000, -4.385169842531318E+08, -3.623078734067707E+08, 5.801288096167743E+05,
2461330.500000000, A.D. 2026-Oct-17 00:00:00.0000, -4.325707154179938E+08, -3.679687500531804E+08, 3.554236094646901E+05,
2461337.500000000, A.D. 2026-Oct-24 00:00:00.0000, -4.265097779689266E+08, -3.735321101698912E+08, 1.306247857741714E+05,
2461344.500000000, A.D. 2026-Oct-31 00:00:00.0000, -4.203352071054575E+08, -3.789959820840294E+08, -9.420830057457089E+04,
2461351.500000000, A.D. 2026-Nov-07 00:00:00.0000, -4.140480604185165E+08, -3.843583853422256E+08, -3.190157938197851E+05,
2461358.500000000, A.D. 2026-Nov-14 00:00:00.0000, -4.076494176506193E+08, -3.896173298695950E+08, -5.437373851173520E+05,
2461365.500000000, A.D. 2026-Nov-21 00:00:00.0000, -4.011403816717601E+08, -3.947708136601678E+08, -7.683121244628131E+05,
2461372.500000000, A.D. 2026-Nov-28 00:00:00.0000, -3.945220816696708E+08, -3.998168220077777E+08, -9.926781568016708E+05,
2461379.500000000, A.D. 2026-Dec-05 00:00:00.0000, -3.877956749361602E+08, -4.047533289352822E+08, -1.216772767701209E+06,
2461386.500000000, A.D. 2026-Dec-12 00:00:00.0000, -3.809623470862224E+08, -4.095782977122903E+08, -1.440532499146581E+06,
2461393.500000000, A.D. 2026-Dec-19 00:00:00.0000, -3.740233125982878E+08, -4.142896804556146E+08, -1.663893161536038E+06,
2461400.500000000, A.D. 2026-Dec-26 00:00:00.0000, -3.669798158188136E+08, -4.188854176813440E+08, -1.886789799527645E+06,
2461407.500000000, A.D. 2027-Jan-02 00:00:00.0000, -3.598331321564350E+08, -4.233634380008408E+08, -2.109156652504563E+06,
2461414.500000000, A.D. 2027-Jan-09 00:00:00.0000, -3.525845693504040E+08, -4.277216579423190E+08, -2.330927118652642E+06,
2461421.500000000, A.D. 2027-Jan-16 00:00:00.0000, -3.452354687803505E+08, -4.319579818911930E+08, -2.552033725125313E+06,
2461428.500000000, A.D. 2027-Jan-23 00:00:00.0000, -3.377872067742282E+08, -4.360703021908617E+08, -2.772408111738741E+06,
2461435.500000000, A.D. 2027-Jan-30 00:00:00.0000, -3.302411957298126E+08, -4.400564994537547E+08, -2.991981049357980E+06,
2461442.500000000, A.D. 2027-Feb-06 00:00:00.0000, -3.225988846282153E+08, -4.439144427446554E+08, -3.210682504228741E+06,
2461449.500000000, A.D. 2027-Feb-13 00:00:00.0000, -3.148617594028075E+08, -4.476419884184441E+08, -3.428441606479168E+06,
2461456.500000000, A.D. 2027-Feb-20 00:00:00.0000, -3.070313455299252E+08, -4.512369784048264E+08, -3.645186370810926E+06,
2461463.500000000, A.D. 2027-Feb-27 00:00:00.0000, -2.991092114474025E+08, -4.546972411556590E+08, -3.860843560277760E+06,
2461470.500000000, A.D. 2027-Mar-06 00:00:00.0000, -2.910969697847968E+08, -4.580205933346580E+08, -4.075338813056469E+06,
2461477.500000000, A.D. 2027-Mar-13 00:00:00.0000, -2.829962780070332E+08, -4.612048402020437E+08, -4.288596718105704E+06,
2461484.500000000, A.D. 2027-Mar-20 00:00:00.0000, -2.748088396015931E+08, -4.642477755308862E+08, -4.500540804517716E+06,
2461491.500000000, A.D. 2027-Mar-27 00:00:00.0000, -2.665364056077260E+08, -4.671471816070333E+08, -4.711093508174151E+06,
2461498.500000000, A.D. 2027-Apr-03 00:00:00.0000, -2.581807762856403E+08, -4.699008293641890E+08, -4.920176138451099E+06,
2461505.500000000, A.D. 2027-Apr-10 00:00:00.0000, -2.497438028658746E+08, -4.725064786354023E+08, -5.127708848901749E+06,
2461512.500000000, A.D. 2027-Apr-17 00:00:00.0000, -2.412273893586378E+08, -4.749618785396128E+08, -5.333610615232080E+06,
2461519.500000000, A.D. 2027-Apr-24 00:00:00.0000, -2.326334943458099E+08, -4.772647680695221E+08, -5.537799232977211E+06,
2461526.500000000, A.D. 2027-May-01 00:00:00.0000, -2.239641324576530E+08, -4.794128768569336E+08, -5.740191360111773E+06,
2461533.500000000, A.D. 2027-May-08 00:00:00.0000, -2.152213752282477E+08, -4.814039253710842E+08, -5.940702571640998E+06,
2461540.500000000, A.D. 2027-May-15 00:00:00.0000, -2.064073528275671E+08, -4.832356236002856E+08, -6.139247210982233E+06,
2461547.500000000, A.D. 2027-May-22 00:00:00.0000, -1.975242582344301E+08, -4.849056708123317E+08, -6.335738106568307E+06,
2461554.500000000, A.D. 2027-May-29 00:00:00.0000, -1.885743504946001E+08, -4.864117578669117E+08, -6.530086581541628E+06,
2461561.500000000, A.D. 2027-Jun-05 00:00:00.0000, -1.795599561798270E+08, -4.877515689540225E+08, -6.722202581752986E+06,
2461568.500000000, A.D. 2027-Jun-12 00:00:00.0000, -1.704834710558786E+08, -4.889227823320894E+08, -6.911994702595204E+06,
2461575.500000000, A.D. 2027-Jun-19 00:00:00.0000, -1.613473622906077E+08, -4.899230710063372E+08, -7.099370160648823E+06,
2461582.500000000, A.D. 2027-Jun-26 00:00:00.0000, -1.521541709222304E+08, -4.907501036147321E+08, -7.284234757059991E+06,
2461589.500000000, A.D. 2027-Jul-03 00:00:00.0000, -1.429065144549720E+08, -4.914015455199047E+08, -7.466492844045192E+06,
2461596.500000000, A.D. 2027-Jul-10 00:00:00.0000, -1.336070895443826E+08, -4.918750601058452E+08, -7.646047297154158E+06,
2461603.500000000, A.D. 2027-Jul-17 00:00:00.0000, -1.242586747351495E+08, -4.921683103264290E+08, -7.822799499748439E+06,
2461610.500000000, A.D. 2027-Jul-24 00:00:00.0000, -1.148641330941464E+08, -4.922789605771388E+08, -7.996649359116644E+06,
2461617.500000000, A.D. 2027-Jul-31 00:00:00.0000, -1.054264143262347E+08, -4.922046786632258E+08, -8.167495372666210E+06,
2461624.500000000, A.D. 2027-Aug-07 00:00:00.0000, -9.594855657208508E+07, -4.919431367213603E+08, -8.335234631661534E+06,
2461631.500000000, A.D. 2027-Aug-14 00:00:00.0000, -8.643369018695047E+07, -4.914920113566132E+08, -8.499762572265506E+06,
2461638.500000000, A.D. 2027-Aug-21 00:00:00.0000, -7.688504287878738E+07, -4.908489863678160E+08, -8.660972805788875E+06,
2461645.500000000, A.D. 2027-Aug-28 00:00:00.0000, -6.730594277064975E+07, -4.900117568685482E+08, -8.818757244865030E+06,
2461652.500000000, A.D. 2027-Sep-04 00:00:00.0000, -5.769982056444390E+07, -4.889780323127509E+08, -8.973006213127106E+06,
2461659.500000000, A.D. 2027-Sep-11 00:00:00.0000, -4.807021219671934E+07, -4.877455390974179E+08, -9.123608464933366E+06,
2461666.500000000, A.D. 2027-Sep-18 00:00:00.0000, -3.842076184774952E+07, -4.863120234037007E+08, -9.270451181047887E+06,
2461673.500000000, A.D. 2027-Sep-25 00:00:00.0000, -2.875522506848814E+07, -4.846752543654220E+08, -9.413419968236059E+06,
2461680.500000000, A.D. 2027-Oct-02 00:00:00.0000, -1.907747194263904E+07, -4.828330275491417E+08, -9.552398868095189E+06,
2461687.500000000, A.D. 2027-Oct-09 00:00:00.0000, -9.391490252453033E+06, -4.807831687626641E+08, -9.687270378268421E+06,
2461694.500000000, A.D. 2027-Oct-16 00:00:00.0000, 2.986114248092078E+05, -4.785235382600883E+08, -9.817915497015089E+06,
2461701.500000000, A.D. 2027-Oct-23 00:00:00.0000, 9.988600960203554E+06, -4.760520353627924E+08, -9.944213816052884E+06,
2461708.500000000, A.D. 2027-Oct-30 00:00:00.0000, 1.967412064225386E+07, -4.733666028995358E+08, -1.006604364669824E+07,
2461715.500000000, A.D. 2027-Nov-06 00:00:00.0000, 2.935068472095615E+07, -4.704652303500309E+08, -1.018328198089665E+07,
2461722.500000000, A.D. 2027-Nov-13 00:00:00.0000, 3.901367455587149E+07, -4.673459577791588E+08, -1.029580427528462E+07,
2461729.500000000, A.D. 2027-Nov-20 00:00:00.0000, 4.865833428816637E+07, -4.640068827588168E+08, -1.040348450375688E+07,
2461736.500000000, A.D. 2027-Nov-27 00:00:00.0000, 5.827976867475744E+07, -4.604461673264606E+08, -1.050619538535759E+07,
2461743.500000000, A.D. 2027-Dec-04 00:00:00.0000, 6.787294108288608E+07, -4.566620440814661E+08, -1.060380852792874E+07,
2461750.500000000, A.D. 2027-Dec-11 00:00:00.0000, 7.743267111752637E+07, -4.526528223984109E+08, -1.069619451647848E+07,
2461757.500000000, A.D. 2027-Dec-18 00:00:00.0000, 8.695363218086700E+07, -4.484168951107524E+08, -1.078322299983364E+07,
2461764.500000000, A.D. 2027-Dec-25 00:00:00.0000, 9.643034914184956E+07, -4.439527456799445E+08, -1.086476279029962E+07,
2461771.500000000, A.D. 2028-Jan-01 00:00:00.0000, 1.058571961856232E+08, -4.392589558464109E+08, -1.094068197956580E+07,
$$EOE